STARLINK-32435          
1 61259U 24175S   25299.74320893 -.00000871  00000+0 -17286-4 0  9990
2 61259  53.1602  96.3605 0001119  90.4175 269.6955 15.30192011 60943
STARLINK-32474          
1 61260U 24175T   25299.72315562  .00002065  00000+0  81853-4 0  9993
2 61260  53.1586  96.2308 0001163  75.9040 284.2090 15.30195122 60942
STARLINK-32447          
1 61261U 24175U   25299.72632109  .00001920  00000+0  76948-4 0  9991
2 61261  53.1596  96.2530 0001200  82.5915 277.5222 15.30198859 60940
STARLINK-32446          
1 61262U 24175V   25299.74003880  .00000023  00000+0  12886-4 0  9996
2 61262  53.1593  96.3394 0000940  97.3554 262.7553 15.30196555 60944
HULIANWAN GAOGUI-03 (H*)
1 61503U 24181A   25299.95838895 -.00000229  00000+0  00000+0 0  9995
2 61503   0.0058 207.8105 0000732 179.6643 276.0107  1.00270081  4489
STARLINK-32174          
1 61509U 24183A   25300.00002315  .00020840  00000+0  71411-3 0  9990
2 61509  53.1606  30.6206 0001032  56.0708 324.3297 15.30184287  5951
STARLINK-32139          
1 61510U 24183B   25299.67665104 -.00001416  00000+0 -35716-4 0  9992
2 61510  53.1618  44.9857 0001138  96.9683 263.1447 15.30189101 59134
STARLINK-32140          
1 61511U 24183C   25299.79040509 -.00001707  00000+0 -45562-4 0  9995
2 61511  53.1616  44.2722 0001235  68.4779 291.6353 15.30183161 59159
STARLINK-32201          
1 61512U 24183D   25299.74065295 -.00065777  00000+0 -16784-2 0  9999
2 61512  53.1605  31.8890 0000572  78.3250 281.7819 15.39077415 59322
STARLINK-32030          
1 61513U 24183E   25299.61767102 -.00000047  00000+0  10545-4 0  9991
2 61513  53.1621  45.3294 0001747  82.6190 277.5009 15.30185900 59127
STARLINK-31837          
1 61514U 24183F   25299.73562826  .00001156  00000+0  51152-4 0  9991
2 61514  53.1601  44.6308 0001185  93.6884 266.4253 15.30196679 59147
STARLINK-32136          
1 61515U 24183G   25299.62716329  .00000011  00000+0  12496-4 0  9996
2 61515  53.1617  45.3900 0001278  86.0208 274.0939 15.30193905 59123
STARLINK-32047          
1 61516U 24183H   25299.73245819  .00000614  00000+0  32863-4 0  9999
2 61516  53.1598  44.6097 0001030  75.6110 284.5005 15.30203735 59148
STARLINK-31756          
1 61517U 24183J   25299.70829853  .00000454  00000+0  27459-4 0  9990
2 61517  53.1601  45.1265 0001148  67.8984 292.2138 15.30193229 59137
STARLINK-32172          
1 61518U 24183K   25299.59866501 -.00000838  00000+0 -16164-4 0  9998
2 61518  53.1618  45.1967 0001008  97.2363 262.8752 15.30200358 59124
STARLINK-32338          
1 61519U 24183L   25299.59128465 -.00000650  00000+0 -98279-5 0  9999
2 61519  53.1617  45.1514 0001242  72.1107 288.0029 15.30191985 59122
STARLINK-32306          
1 61520U 24183M   25299.71875523  .00001980  00000+0  78993-4 0  9994
2 61520  53.1613  44.5236 0001392  76.0750 284.0405 15.30184825 59148
STARLINK-32297          
1 61521U 24183N   25299.71558468 -.00001018  00000+0 -22266-4 0  9997
2 61521  53.1608  44.5039 0001325  73.7843 286.3303 15.30189309 59141
STARLINK-32260          
1 61522U 24183P   25299.71241719 -.00001628  00000+0 -42852-4 0  9996
2 61522  53.1606  44.4835 0001473  91.6100 268.5069 15.30184411 59142
STARLINK-32305          
1 61523U 24183Q   25299.67980748 -.00003138  00000+0 -93859-4 0  9995
2 61523  53.1614  44.9949 0001361  96.6786 263.4369 15.30204757 59136
STARLINK-32296          
1 61524U 24183R   25299.70923593  .00002815  00000+0  10709-3 0  9996
2 61524  53.1609  44.4626 0001451  69.1113 291.0043 15.30218442 59140
STARLINK-32298          
1 61525U 24183S   25299.70608488 -.00000390  00000+0 -10457-5 0  9990
2 61525  53.1617  44.4424 0001260  77.7035 282.4107 15.30189724 59147
STARLINK-32293          
1 61526U 24183T   25299.57240004  .00001311  00000+0  56400-4 0  9991
2 61526  53.1613  45.7398 0001240  86.9928 273.1215 15.30191436 59116
STARLINK-32313          
1 61527U 24183U   25299.76200693 -.00000731  00000+0 -12566-4 0  9995
2 61527  53.1623  44.7922 0001236  96.8332 263.2809 15.30200471 59146
STARLINK-32319          
1 61528U 24183V   25299.70197545 -.00000329  00000+0  10170-5 0  9993
2 61528  53.1613  45.1280 0001440  72.9490 287.1668 15.30191974 59139
STARLINK-32351          
1 61529U 24183W   25299.66651567 -.00001992  00000+0 -55139-4 0  9999
2 61529  53.1617  42.0907 0001628  98.8458 261.2727 15.30194978 59175
STARLINK-32261          
1 61530U 24183X   25299.62083640 -.00000582  00000+0 -75355-5 0  9995
2 61530  53.1614  45.3458 0001244 102.6548 257.4592 15.30185404 59125
STARLINK-32358          
1 61531U 24183Y   25299.73459196 -.00001858  00000+0 -50651-4 0  9999
2 61531  53.1605  44.6341 0001337 101.5024 258.6127 15.30186327 59143
STARLINK-11354 [DTC]    
1 61532U 24184A   25299.90446080 -.00000390  00000+0  16423-5 0  9997
2 61532  53.1588 175.8672 0001061  75.3744 284.7392 15.69709248 59407
STARLINK-11323 [DTC]    
1 61533U 24184B   25299.89464514 -.00002829  00000+0 -18489-4 0  9991
2 61533  53.1576 175.8013 0001334  65.6444 294.4713 15.69716392 59409
STARLINK-11338 [DTC]    
1 61534U 24184C   25299.83588709 -.00000879  00000+0 -23956-5 0  9998
2 61534  53.1582 176.1487 0001065  95.1859 264.9280 15.69705587 59398
STARLINK-11362 [DTC]    
1 61535U 24184D   25299.94850431 -.00001111  00000+0 -43202-5 0  9991
2 61535  53.1580 175.4239 0000602  97.2034 262.9052 15.69716953 59415
STARLINK-11295 [DTC]    
1 61536U 24184E   25299.95341402  .00000998  00000+0  13100-4 0  9999
2 61536  53.1583 175.4575 0000999  91.3011 268.8121 15.69705135 59413
STARLINK-11331 [DTC]    
1 61537U 24184F   25299.94359735  .00000927  00000+0  12504-4 0  9996
2 61537  53.1589 175.3888 0001008  87.1194 272.9939 15.69714779 59410
STARLINK-11325 [DTC]    
1 61538U 24184G   25299.93869257  .00000492  00000+0  89158-5 0  9998
2 61538  53.1587 175.3563 0001065  80.4800 279.6339 15.69713275 59410
STARLINK-11332 [DTC]    
1 61539U 24184H   25299.93379257  .00001461  00000+0  16918-4 0  9995
2 61539  53.1575 175.3466 0001282  72.0053 288.1105 15.69715659 59412
STARLINK-11350 [DTC]    
1 61540U 24184J   25299.92888543  .00000455  00000+0  86123-5 0  9997
2 61540  53.1594 175.2900 0001091 100.4731 259.6410 15.69705457 59411
STARLINK-11357 [DTC]    
1 61541U 24184K   25299.92408392 -.00001097  00000+0 -41978-5 0  9992
2 61541  53.1588 175.9944 0001064  74.0956 286.0179 15.69707178 59402
STARLINK-11322 [DTC]    
1 61542U 24184L   25299.91917760 -.00000243  00000+0  28554-5 0  9992
2 61542  53.1589 175.9607 0001067  86.4588 273.6552 15.69709498 60463
STARLINK-11364 [DTC]    
1 61543U 24184M   25299.91427276 -.00000174  00000+0  34232-5 0  9994
2 61543  53.1588 175.9290 0001220  72.2406 287.8745 15.69706980 59400
STARLINK-11349 [DTC]    
1 61544U 24184N   25299.90936540  .00000272  00000+0  71012-5 0  9998
2 61544  53.1583 175.8940 0000953  88.2164 271.8963 15.69709674 59405
STARLINK-32406          
1 61545U 24184P   25299.91121038  .00000521  00000+0  29709-4 0  9990
2 61545  53.1601 275.4171 0001347 100.8976 259.2177 15.30190235 58029
STARLINK-32445          
1 61546U 24184Q   25299.92387556  .00000673  00000+0  34844-4 0  9995
2 61546  53.1613 275.4984 0001360  98.6855 261.4300 15.30188300 58023
STARLINK-32411          
1 61547U 24184R   25299.64678718 -.00000268  00000+0  30671-5 0  9994
2 61547  53.1601 276.6100 0001235 102.6981 257.4158 15.30189647 57986
STARLINK-32424          
1 61548U 24184S   25299.65944985 -.00001136  00000+0 -26221-4 0  9999
2 61548  53.1610 276.6911 0001629  97.5793 262.5393 15.30192561 57984
STARLINK-32389          
1 61549U 24184T   25299.64361838  .00000351  00000+0  23965-4 0  9997
2 61549  53.1598 276.5939 0001135  92.1207 267.9924 15.30194794 57981
STARLINK-32476          
1 61550U 24184U   25299.32971146 -.00000637  00000+0 -93873-5 0  9998
2 61550  53.1613 278.1886 0001385  95.0324 265.0835 15.30190460 57930
STARLINK-32366          
1 61551U 24184V   25299.66578319 -.00002524  00000+0 -73105-4 0  9993
2 61551  53.1605 276.7328 0001673  96.0491 264.0700 15.30199107 57985
QIANFAN-19              
1 61552U 24185A   25299.88778479  .00000840  00000+0  43329-3 0  9999
2 61552  88.9784  83.3036 0009099  95.4530 264.7695 14.14219541 63045
QIANFAN-20              
1 61553U 24185B   25299.88115391  .00000653  00000+0  37052-3 0  9996
2 61553  88.9782  83.5810 0007435 124.9964 235.1918 14.08768361 62891
QIANFAN-21              
1 61554U 24185C   25299.90370795  .00001021  00000+0  45108-3 0  9992
2 61554  88.9700  82.4589 0011812 147.1179 213.0750 14.22506528 63310
QIANFAN-22              
1 61555U 24185D   25299.94536254  .00000308  00000+0  25541-3 0  9997
2 61555  88.9766  84.3673 0008132 129.3635 230.8258 13.86277555 62456
QIANFAN-23              
1 61556U 24185E   25299.92922121  .00000845  00000+0  41959-3 0  9995
2 61556  88.9777  83.1305 0009843 104.8073 255.4206 14.16217911 63127
QIANFAN-24              
1 61557U 24185F   25299.94597643  .00000864  00000+0  37217-3 0  9998
2 61557  88.9758  82.6101 0011645  91.7240 268.5286 14.23713515 63366
QIANFAN-25              
1 61558U 24185G   25299.88989326  .00000707  00000+0  42384-3 0  9992
2 61558  88.9774  83.4843 0010694  91.8886 268.3521 14.05841698 62922
QIANFAN-26              
1 61559U 24185H   25299.90598989  .00000426  00000+0  41316-3 0  9999
2 61559  88.9773  84.7990 0006844 140.5924 219.5741 13.77772816 62224
QIANFAN-27              
1 61560U 24185J   25299.91658495  .00000901  00000+0  36278-3 0  9990
2 61560  88.9771  82.4266 0010050  85.6669 274.5673 14.27243010 63483
QIANFAN-28              
1 61561U 24185K   25299.92081257  .00001435  00000+0  57409-3 0  9990
2 61561  88.9788  82.4255 0009215  85.8857 274.3390 14.27884876 63498
QIANFAN-29              
1 61562U 24185L   25299.93100629  .00000257  00000+0  37961-3 0  9999
2 61562  88.9748  86.1415 0010227 177.0797 183.0416 13.50986977 61477
